OBJECT_NAME,OBJECT_ID,EPOCH,MEAN_MOTION,ECCENTRICITY,INCLINATION,RA_OF_ASC_NODE,ARG_OF_PERICENTER,MEAN_ANOMALY,EPHEMERIS_TYPE,CLASSIFICATION_TYPE,NORAD_CAT_ID,ELEMENT_SET_NO,REV_AT_EPOCH,BSTAR,MEAN_MOTION_DOT,MEAN_MOTION_DDOT
STARLINK-4112,2022-062AH,2023-12-21T11:18:37.105056,15.08853947,0.0001406,53.2173,56.8535,102.5265,257.5885,0,U,52861,999,8425,2.76E-04,4.10E-05,0
STARLINK-4010,2022-062AJ,2023-12-21T11:38:25.848960,15.08848279,0.0001471,53.2191,56.7812,103.5378,256.5778,0,U,52862,999,8425,1.96E-04,2.83E-05,0
STARLINK-4270,2022-062AK,2023-12-20T11:37:03.476064,15.08836284,0.0001646,53.2177,61.2706,98.565,261.5528,0,U,52863,999,8361,-1.14E-04,-2.09E-05,0
STARLINK-4267,2022-062AL,2023-12-21T09:57:45.157536,15.0884433,0.0001615,53.2192,57.0979,104.5761,255.541,0,U,52864,999,8424,7.35E-05,8.82E-06,0
STARLINK-4274,2022-062AM,2023-12-21T09:36:33.133536,15.08846797,0.0001484,53.2181,57.1625,84.9733,275.1429,0,U,52865,999,8424,9.77E-05,1.27E-05,0
STARLINK-4272,2022-062AN,2023-12-21T11:22:32.336832,15.08850983,0.0001557,53.218,56.8299,97.7636,262.3532,0,U,52866,999,8425,3.49E-04,5.27E-05,0
STARLINK-4126,2022-062AP,2023-12-21T11:01:19.964640,15.08850731,0.000158,53.2186,56.8987,99.6136,260.5035,0,U,52867,999,8425,1.72E-04,2.45E-05,0
STARLINK-4261,2022-062AQ,2023-12-21T11:17:14.531712,15.08846162,0.0001565,53.2187,56.8743,99.8463,260.2706,0,U,52868,999,8425,1.31E-04,1.80E-05,0
STARLINK-4266,2022-062AR,2023-12-21T10:52:04.502496,15.08842924,0.0001683,53.2185,46.9299,104.7776,255.3402,0,U,52869,999,8438,2.84E-04,4.23E-05,0
STARLINK-4195,2022-062AS,2023-12-21T11:06:38.462688,15.08852095,0.0001718,53.218,56.8794,94.8735,265.2454,0,U,52870,999,8425,3.08E-04,4.62E-05,0
STARLINK-4207,2022-062AT,2023-12-21T10:36:10.083168,15.08854754,0.0001572,53.2183,46.978,107.773,252.3434,0,U,52871,999,8438,4.08E-04,6.21E-05,0
STARLINK-4213,2022-062AU,2023-12-21T10:42:50.020992,15.08847714,0.0001413,53.2185,46.9294,103.9202,256.1948,0,U,52872,999,8438,2.43E-04,3.58E-05,0
STARLINK-4211,2022-062AV,2023-12-21T10:25:33.336768,15.08854414,0.0001658,53.219,47.0193,103.6095,256.5082,0,U,52873,999,8438,2.94E-04,4.39E-05,0
STARLINK-4210,2022-062AW,2023-12-21T10:41:28.434336,15.08847026,0.0001738,53.2186,46.9632,106.7849,253.3334,0,U,52874,999,8438,2.65E-04,3.93E-05,0
STARLINK-4193,2022-062AX,2023-12-21T10:20:18.226464,15.08814752,0.0001243,53.2179,47.0273,94.3708,265.7426,0,U,52875,999,8438,-1.17E-04,-2.15E-05,0
STARLINK-4200,2022-062AY,2023-12-21T08:55:29.452224,15.08842608,0.0001605,53.2193,47.2946,103.5651,256.552,0,U,52876,999,8437,6.21E-05,7.00E-06,0
STARLINK-4214,2022-062AZ,2023-12-21T11:18:34.870752,15.08809301,0.0001879,53.2198,46.8472,73.1225,286.9973,0,U,52877,999,8439,7.23E-04,1.12E-04,0
STARLINK-4171,2022-062BA,2023-12-21T10:14:59.124480,15.08851801,0.000161,53.2182,47.0447,86.0387,274.0789,0,U,52878,999,8438,5.69E-04,8.79E-05,0
STARLINK-4139,2022-062BB,2023-12-21T11:02:39.895872,15.08848111,0.0001515,53.219,46.8944,75.9715,284.1445,0,U,52879,999,8439,2.41E-04,3.55E-05,0
STARLINK-4186,2022-062BC,2023-12-21T11:07:58.406880,15.08846436,0.0001301,53.2172,46.8767,92.4828,267.6313,0,U,52880,999,8439,2.72E-04,4.04E-05,0
STARLINK-4192,2022-062BD,2023-12-20T23:24:37.824192,15.08836769,0.000166,53.2177,49.4673,105.8344,254.2832,0,U,52881,999,8431,2.68E-04,3.98E-05,0
STARLINK-4181,2022-062BE,2023-12-21T11:04:03.326304,15.0884593,0.0001687,53.2181,46.9355,76.3173,283.8007,0,U,52882,999,8439,1.46E-04,2.03E-05,0
GLOBALSTAR M087,2022-064A,2023-12-20T14:58:01.869600,13.37560487,0.0008644,51.9759,114.5016,266.9548,93.0363,0,U,52888,999,7349,5.21E-05,-1.01E-06,0
PVSAT,2022-065A,2023-12-21T09:00:52.015392,14.58046822,0.0008928,98.0964,134.4028,336.9267,23.153,0,U,52894,999,7984,1.52E-04,6.52E-06,0
KSLV-II DUMMY,2022-065B,2023-12-20T21:51:26.933760,14.58299317,0.0008129,98.0989,134.496,357.3251,2.7903,0,U,52895,999,7981,3.82E-05,1.32E-06,0
STEP CUBE LAB-II,2022-065D,2023-12-21T10:21:30.951072,14.59659352,0.0008789,98.094,135.3431,356.8977,3.2167,0,U,52897,999,7874,3.31E-04,1.53E-05,0
RANDEV,2022-065E,2023-12-21T11:11:00.556224,14.5980408,0.00081,98.0936,135.4433,359.4881,0.631,0,U,52898,999,7847,3.65E-04,1.70E-05,0
SNUGLITE-II,2022-065F,2023-12-21T08:47:31.758720,14.59983514,0.0007696,98.0928,135.3897,0.4506,359.67,0,U,52899,999,7816,4.09E-04,1.92E-05,0
MIMAN,2022-065G,2023-12-21T09:16:43.254336,14.59199034,0.0007538,98.0951,135.1334,355.4175,4.6954,0,U,52900,999,7776,2.47E-04,1.12E-05,0
CMS-02 (GSAT 24),2022-067A,2023-12-18T09:32:42.556128,1.00271597,0.0002802,0.02,277.2314,195.0187,200.6868,0,U,52903,999,547,0,-1.56E-06,0
MEASAT 3D,2022-067B,2023-12-21T09:01:12.600192,1.00272168,0.0003077,0.0283,335.8992,315.5791,25.0032,0,U,52904,999,553,0,-2.31E-06,0
YAOGAN-35 02A,2022-068A,2023-12-21T11:44:42.737856,15.22898139,0.0006219,34.9962,81.7079,204.4007,155.6414,0,U,52907,999,8339,7.05E-04,1.69E-04,0
YAOGAN-35 02B,2022-068B,2023-12-21T11:38:08.322720,15.23047225,0.0015919,34.9961,81.6715,146.7978,213.3738,0,U,52908,999,8336,9.98E-04,2.42E-04,0
YAOGAN-35 02C,2022-068C,2023-12-21T10:50:58.767648,15.49903927,0.001029,34.991,48.4082,186.7058,173.3528,0,U,52909,999,8373,1.60E-03,9.31E-04,0
GAOFEN-12 03,2022-069A,2023-12-21T11:01:44.332896,14.81012153,0.000174,97.9302,243.623,76.695,283.4457,0,U,52912,999,8016,3.75E-04,2.86E-05,0
SES-22,2022-071A,2023-12-20T00:37:42.562848,1.00273571,0.0001144,0.0195,342.2362,287.2675,53.3006,0,U,52933,999,541,0,9.70E-07,0
DS-EO,2022-072A,2023-12-16T21:02:03.321312,15.02432445,0.0006299,9.9955,117.8981,52.3077,307.7708,0,U,52935,999,8039,-4.14E-05,1.68E-06,0
NEUSAR,2022-072C,2023-12-09T18:40:00.541056,15.07674849,0.0002313,9.9834,162.0633,315.0958,44.9069,0,U,52937,999,7942,4.30E-04,7.52E-05,0
WFOV (USA 332),2022-073A,2023-12-20T21:39:05.436000,1.0026967,0.0002118,1.3617,90.7026,117.872,324.6532,0,U,52940,999,525,0,-3.53E-06,0
RECURVE,2022-074A,2023-12-20T10:35:37.738464,15.45217366,0.0007076,45.0081,54.6495,332.8622,27.1897,0,U,52944,999,8218,8.79E-04,4.26E-04,0
NACHOS-2,2022-074B,2023-12-20T11:08:50.890560,15.47581201,0.000579,44.9893,50.685,348.4214,11.6543,0,U,52945,999,8222,9.99E-04,5.26E-04,0
SLINGSHOT 1,2022-074D,2023-12-20T14:18:09.374976,15.45322554,0.0006701,44.9906,52.4248,358.8874,1.1999,0,U,52947,999,8221,1.11E-03,5.41E-04,0
GPX2 3U,2022-074E,2023-12-19T00:20:53.043648,15.52327885,0.0009703,44.9963,50.3754,357.778,2.3068,0,U,52948,999,8210,1.07E-03,6.71E-04,0
GUNSMOKE-L,2022-074H,2023-12-21T07:18:15.902208,16.03422418,0.0014535,44.9551,14.371,80.0089,280.2462,0,U,52951,999,8271,2.75E-03,1.76E-02,2.02E-03
COSMOS 2557 [GLONASS-K],2022-075A,2023-12-19T06:33:30.284352,2.13101823,0.0014141,64.7326,346.3913,280.5976,79.263,0,U,52984,999,1130,0,-4.10E-07,0
STARLINK-4260,2022-076A,2023-12-20T15:52:44.897664,15.08846419,0.0001359,53.2178,130.4759,79.885,280.2295,0,U,52986,999,8055,-1.41E-04,-2.53E-05,0
STARLINK-4259,2022-076B,2023-12-20T16:49:42.743424,15.08836824,0.0001367,53.217,140.2993,89.0556,271.0593,0,U,52987,999,8042,-6.62E-06,-3.93E-06,0
STARLINK-4291,2022-076C,2023-12-21T12:27:27.584064,15.08837041,0.0001469,53.2173,126.6293,101.6074,258.5083,0,U,52988,999,8115,1.01E-04,1.33E-05,0
STARLINK-4293,2022-076D,2023-12-20T16:44:24.894240,15.08839994,0.0001313,53.2162,140.3146,80.4931,279.6209,0,U,52989,999,8042,-3.17E-05,-7.92E-06,0
STARLINK-4286,2022-076E,2023-12-20T16:39:06.707232,15.08837392,0.000126,53.2151,140.33,95.365,264.7486,0,U,52990,999,8042,4.53E-05,4.33E-06,0
STARLINK-4285,2022-076F,2023-12-20T16:33:48.985920,15.08839666,0.0001356,53.2141,140.3518,62.1806,297.9323,0,U,52991,999,8042,7.25E-05,8.66E-06,0
STARLINK-4269,2022-076G,2023-12-20T16:29:53.709216,15.08840653,0.0001504,53.2172,140.3739,76.7443,283.3717,0,U,52992,999,8042,-2.78E-05,-7.31E-06,0
STARLINK-4264,2022-076H,2023-12-21T12:22:09.474816,15.08844666,0.0001348,53.2175,126.6433,91.0731,269.0415,0,U,52993,999,8115,1.87E-05,9.00E-08,0
STARLINK-4256,2022-076J,2023-12-21T12:16:51.955680,15.08840317,0.0001457,53.2159,126.6699,75.7849,284.3305,0,U,52994,999,8115,1.43E-04,1.98E-05,0
STARLINK-4296,2022-076K,2023-12-20T17:01:38.327232,15.08840938,0.0001737,53.2189,130.2649,64.7084,295.4088,0,U,52995,999,8056,1.29E-05,-8.30E-07,0
STARLINK-4295,2022-076L,2023-12-20T15:31:33.107808,15.08839409,0.000148,53.2161,130.5435,79.5039,280.6119,0,U,52996,999,8055,5.74E-05,6.25E-06,0
STARLINK-4301,2022-076M,2023-12-21T12:26:11.986656,15.24693769,0.0003147,53.2431,102.0705,81.3539,278.7817,0,U,52997,999,8151,5.37E-04,1.31E-04,0
STARLINK-4254,2022-076N,2023-12-20T16:45:43.391232,15.08841792,0.0001345,53.2174,130.2243,73.1697,286.9443,0,U,52998,999,8056,-1.81E-05,-5.76E-06,0
STARLINK-4217,2022-076P,2023-12-20T16:35:08.762496,15.08825533,0.0001658,53.2178,130.3441,94.831,265.2872,0,U,52999,999,8056,1.55E-04,2.19E-05,0
STARLINK-4194,2022-076Q,2023-12-20T16:56:19.906080,15.08841391,0.0001263,53.2169,130.2779,77.9143,282.1991,0,U,53000,999,8103,1.40E-04,1.95E-05,0
STARLINK-4190,2022-076R,2023-12-20T14:54:27.736704,15.08831923,0.0001259,53.217,130.658,67.0835,293.0289,0,U,53001,999,8055,-2.39E-05,-6.68E-06,0
STARLINK-4121,2022-076S,2023-12-20T16:51:02.160576,15.0883644,0.0001444,53.2165,130.2964,69.4134,290.7013,0,U,53002,999,8056,-5.82E-05,-1.21E-05,0
STARLINK-4255,2022-076T,2023-12-20T16:19:14.724192,15.08830181,0.0001346,53.2162,130.3925,94.8152,265.2994,0,U,53003,999,8056,6.31E-05,7.16E-06,0
STARLINK-4253,2022-076U,2023-12-20T16:40:26.728320,15.08831533,0.0001317,53.217,130.3286,88.2348,271.8795,0,U,53004,999,8056,-7.01E-06,-3.99E-06,0
STARLINK-4288,2022-076V,2023-12-20T16:13:56.670240,15.0883622,0.0001551,53.217,130.4126,103.2483,256.8682,0,U,53005,999,8056,1.02E-05,-1.26E-06,0
STARLINK-4290,2022-076W,2023-12-20T16:24:32.281344,15.08840067,0.0001219,53.2163,130.3747,76.6605,283.4523,0,U,53006,999,8056,7.98E-05,9.82E-06,0
STARLINK-4215,2022-076X,2023-12-20T16:03:20.653920,15.08840064,0.0001383,53.2172,130.4451,100.8884,259.2264,0,U,53007,999,8056,-6.44E-05,-1.31E-05,0
